[{"OBJECT_NAME":"SL-8 R/B","OBJECT_ID":"1979-089B","EPOCH":"2026-04-02T07:51:44.184672","MEAN_MOTION":14.42366873,"ECCENTRICITY":0.00166046,"INCLINATION":74.0698,"RA_OF_ASC_NODE":47.2837,"ARG_OF_PERICENTER":216.8158,"MEAN_ANOMALY":143.186,"EPHEMERIS_TYPE":0,"CLASSIFICATION_TYPE":"U","NORAD_CAT_ID":11574,"ELEMENT_SET_NO":999,"REV_AT_EPOCH":43951,"BSTAR":0.00014890475,"MEAN_MOTION_DOT":4.66e-6,"MEAN_MOTION_DDOT":0},{"OBJECT_NAME":"SL-14 R/B","OBJECT_ID":"1980-005B","EPOCH":"2026-04-02T06:49:37.783776","MEAN_MOTION":14.90958865,"ECCENTRICITY":0.00172353,"INCLINATION":82.5109,"RA_OF_ASC_NODE":284.8484,"ARG_OF_PERICENTER":85.3241,"MEAN_ANOMALY":274.9946,"EPHEMERIS_TYPE":0,"CLASSIFICATION_TYPE":"U","NORAD_CAT_ID":11672,"ELEMENT_SET_NO":999,"REV_AT_EPOCH":48000,"BSTAR":8.3114835e-5,"MEAN_MOTION_DOT":8.48e-6,"MEAN_MOTION_DDOT":0},{"OBJECT_NAME":"SL-8 R/B","OBJECT_ID":"1981-003B","EPOCH":"2026-04-02T05:43:06.020832","MEAN_MOTION":15.12053189,"ECCENTRICITY":0.02603016,"INCLINATION":82.9327,"RA_OF_ASC_NODE":268.2293,"ARG_OF_PERICENTER":96.8137,"MEAN_ANOMALY":266.2785,"EPHEMERIS_TYPE":0,"CLASSIFICATION_TYPE":"U","NORAD_CAT_ID":12139,"ELEMENT_SET_NO":999,"REV_AT_EPOCH":31823,"BSTAR":0.00075231074,"MEAN_MOTION_DOT":0.00030204,"MEAN_MOTION_DDOT":0},{"OBJECT_NAME":"SL-3 R/B","OBJECT_ID":"1981-046B","EPOCH":"2026-04-02T06:29:58.997472","MEAN_MOTION":15.4259092,"ECCENTRICITY":0.00181187,"INCLINATION":81.2283,"RA_OF_ASC_NODE":261.4098,"ARG_OF_PERICENTER":298.4222,"MEAN_ANOMALY":61.5194,"EPHEMERIS_TYPE":0,"CLASSIFICATION_TYPE":"U","NORAD_CAT_ID":12465,"ELEMENT_SET_NO":999,"REV_AT_EPOCH":44206,"BSTAR":0.00039604463,"MEAN_MOTION_DOT":0.00017361,"MEAN_MOTION_DDOT":0},{"OBJECT_NAME":"SL-3 R/B","OBJECT_ID":"1981-103B","EPOCH":"2026-04-02T07:34:56.849664","MEAN_MOTION":15.2166433,"ECCENTRICITY":0.00130249,"INCLINATION":81.1615,"RA_OF_ASC_NODE":185.7167,"ARG_OF_PERICENTER":202.6924,"MEAN_ANOMALY":157.3734,"EPHEMERIS_TYPE":0,"CLASSIFICATION_TYPE":"U","NORAD_CAT_ID":12904,"ELEMENT_SET_NO":999,"REV_AT_EPOCH":97682,"BSTAR":0.00031783133,"MEAN_MOTION_DOT":7.226e-5,"MEAN_MOTION_DDOT":0},{"OBJECT_NAME":"SL-3 R/B","OBJECT_ID":"1982-013B","EPOCH":"2026-04-02T05:58:24.194496","MEAN_MOTION":15.22230571,"ECCENTRICITY":0.00235705,"INCLINATION":81.1726,"RA_OF_ASC_NODE":133.1538,"ARG_OF_PERICENTER":100.5279,"MEAN_ANOMALY":259.861,"EPHEMERIS_TYPE":0,"CLASSIFICATION_TYPE":"U","NORAD_CAT_ID":13068,"ELEMENT_SET_NO":999,"REV_AT_EPOCH":40793,"BSTAR":0.00024671924,"MEAN_MOTION_DOT":5.74e-5,"MEAN_MOTION_DDOT":0},{"OBJECT_NAME":"SL-3 R/B","OBJECT_ID":"1982-039B","EPOCH":"2026-04-02T07:28:14.973024","MEAN_MOTION":15.10218324,"ECCENTRICITY":0.00283141,"INCLINATION":81.1563,"RA_OF_ASC_NODE":188.7238,"ARG_OF_PERICENTER":245.8826,"MEAN_ANOMALY":113.9438,"EPHEMERIS_TYPE":0,"CLASSIFICATION_TYPE":"U","NORAD_CAT_ID":13154,"ELEMENT_SET_NO":999,"REV_AT_EPOCH":38520,"BSTAR":0.00022627638,"MEAN_MOTION_DOT":3.755e-5,"MEAN_MOTION_DDOT":0},{"OBJECT_NAME":"SL-3 R/B","OBJECT_ID":"1982-079B","EPOCH":"2026-04-02T06:55:40.147968","MEAN_MOTION":15.25115408,"ECCENTRICITY":0.00255058,"INCLINATION":81.1479,"RA_OF_ASC_NODE":165.2114,"ARG_OF_PERICENTER":87.3739,"MEAN_ANOMALY":273.0414,"EPHEMERIS_TYPE":0,"CLASSIFICATION_TYPE":"U","NORAD_CAT_ID":13403,"ELEMENT_SET_NO":999,"REV_AT_EPOCH":38129,"BSTAR":0.00029771726,"MEAN_MOTION_DOT":7.55e-5,"MEAN_MOTION_DDOT":0},{"OBJECT_NAME":"SL-14 R/B","OBJECT_ID":"1982-092B","EPOCH":"2026-04-02T07:49:02.789472","MEAN_MOTION":14.86688435,"ECCENTRICITY":0.00193096,"INCLINATION":82.5652,"RA_OF_ASC_NODE":119.287,"ARG_OF_PERICENTER":219.2861,"MEAN_ANOMALY":151.2571,"EPHEMERIS_TYPE":0,"CLASSIFICATION_TYPE":"U","NORAD_CAT_ID":13553,"ELEMENT_SET_NO":999,"REV_AT_EPOCH":33244,"BSTAR":6.6114333e-5,"MEAN_MOTION_DOT":6.14e-6,"MEAN_MOTION_DDOT":0},{"OBJECT_NAME":"SL-3 R/B","OBJECT_ID":"1983-010B","EPOCH":"2026-04-02T02:45:14.814720","MEAN_MOTION":15.47149431,"ECCENTRICITY":0.00155977,"INCLINATION":81.1042,"RA_OF_ASC_NODE":333.5138,"ARG_OF_PERICENTER":330.091,"MEAN_ANOMALY":29.9442,"EPHEMERIS_TYPE":0,"CLASSIFICATION_TYPE":"U","NORAD_CAT_ID":13819,"ELEMENT_SET_NO":999,"REV_AT_EPOCH":36156,"BSTAR":0.00031181657,"MEAN_MOTION_DOT":0.00015935,"MEAN_MOTION_DDOT":0},{"OBJECT_NAME":"SL-3 R/B","OBJECT_ID":"1983-075B","EPOCH":"2026-04-02T07:03:06.929280","MEAN_MOTION":15.38990133,"ECCENTRICITY":0.00226756,"INCLINATION":97.6132,"RA_OF_ASC_NODE":97.775,"ARG_OF_PERICENTER":141.3958,"MEAN_ANOMALY":218.8914,"EPHEMERIS_TYPE":0,"CLASSIFICATION_TYPE":"U","NORAD_CAT_ID":14208,"ELEMENT_SET_NO":999,"REV_AT_EPOCH":33378,"BSTAR":0.00041442749,"MEAN_MOTION_DOT":0.00016065,"MEAN_MOTION_DDOT":0},{"OBJECT_NAME":"COSMOS 1536","OBJECT_ID":"1984-013A","EPOCH":"2026-04-02T05:25:32.436768","MEAN_MOTION":15.24158723,"ECCENTRICITY":0.00138476,"INCLINATION":82.5416,"RA_OF_ASC_NODE":84.4413,"ARG_OF_PERICENTER":191.8424,"MEAN_ANOMALY":168.249,"EPHEMERIS_TYPE":0,"CLASSIFICATION_TYPE":"U","NORAD_CAT_ID":14699,"ELEMENT_SET_NO":999,"REV_AT_EPOCH":27620,"BSTAR":0.00037987185,"MEAN_MOTION_DOT":9.3e-5,"MEAN_MOTION_DDOT":0},{"OBJECT_NAME":"SL-14 R/B","OBJECT_ID":"1984-027B","EPOCH":"2026-04-01T15:43:14.547072","MEAN_MOTION":14.86001483,"ECCENTRICITY":0.00165254,"INCLINATION":82.5423,"RA_OF_ASC_NODE":223.4729,"ARG_OF_PERICENTER":256.2708,"MEAN_ANOMALY":103.6669,"EPHEMERIS_TYPE":0,"CLASSIFICATION_TYPE":"U","NORAD_CAT_ID":14820,"ELEMENT_SET_NO":999,"REV_AT_EPOCH":25104,"BSTAR":7.3247615e-5,"MEAN_MOTION_DOT":6.65e-6,"MEAN_MOTION_DDOT":0},{"OBJECT_NAME":"SL-8 R/B","OBJECT_ID":"1985-006B","EPOCH":"2026-04-02T07:22:14.655648","MEAN_MOTION":14.37800804,"ECCENTRICITY":0.0017514,"INCLINATION":74.0459,"RA_OF_ASC_NODE":217.6882,"ARG_OF_PERICENTER":128.4993,"MEAN_ANOMALY":252.4569,"EPHEMERIS_TYPE":0,"CLASSIFICATION_TYPE":"U","NORAD_CAT_ID":15483,"ELEMENT_SET_NO":999,"REV_AT_EPOCH":15742,"BSTAR":0.00014731927,"MEAN_MOTION_DOT":4.18e-6,"MEAN_MOTION_DDOT":0},{"OBJECT_NAME":"SL-12 R/B(2)","OBJECT_ID":"1985-042D","EPOCH":"2026-04-02T06:39:45.207648","MEAN_MOTION":14.21989389,"ECCENTRICITY":0.00328242,"INCLINATION":71.1097,"RA_OF_ASC_NODE":37.8917,"ARG_OF_PERICENTER":88.9626,"MEAN_ANOMALY":62.5389,"EPHEMERIS_TYPE":0,"CLASSIFICATION_TYPE":"U","NORAD_CAT_ID":15772,"ELEMENT_SET_NO":999,"REV_AT_EPOCH":11774,"BSTAR":0.00010385451,"MEAN_MOTION_DOT":1.83e-6,"MEAN_MOTION_DDOT":0},{"OBJECT_NAME":"SL-14 R/B","OBJECT_ID":"1985-069B","EPOCH":"2026-04-02T05:43:39.906912","MEAN_MOTION":14.86459433,"ECCENTRICITY":0.00202224,"INCLINATION":82.5305,"RA_OF_ASC_NODE":2.7959,"ARG_OF_PERICENTER":112.5198,"MEAN_ANOMALY":247.8162,"EPHEMERIS_TYPE":0,"CLASSIFICATION_TYPE":"U","NORAD_CAT_ID":15945,"ELEMENT_SET_NO":999,"REV_AT_EPOCH":17633,"BSTAR":7.5421051e-5,"MEAN_MOTION_DOT":6.93e-6,"MEAN_MOTION_DDOT":0},{"OBJECT_NAME":"SL-16 R/B","OBJECT_ID":"1985-097B","EPOCH":"2026-04-02T06:41:42.793728","MEAN_MOTION":14.16602955,"ECCENTRICITY":0.00093077,"INCLINATION":71.0007,"RA_OF_ASC_NODE":90.8891,"ARG_OF_PERICENTER":231.9194,"MEAN_ANOMALY":139.2347,"EPHEMERIS_TYPE":0,"CLASSIFICATION_TYPE":"U","NORAD_CAT_ID":16182,"ELEMENT_SET_NO":999,"REV_AT_EPOCH":9057,"BSTAR":-6.6186368e-5,"MEAN_MOTION_DOT":-1.8e-6,"MEAN_MOTION_DDOT":0}]
