SL-8 R/B                
1 11574U 79089B   26092.32759473  .00000466  00000+0  14890-3 0  9990
2 11574  74.0698  47.2837 0016604 216.8158 143.1860 14.42366873439512
SL-14 R/B               
1 11672U 80005B   26092.28446509  .00000848  00000+0  83115-4 0  9998
2 11672  82.5109 284.8484 0017235  85.3241 274.9946 14.90958865480001
SL-8 R/B                
1 12139U 81003B   26092.23826413  .00030204  00000+0  75231-3 0  9995
2 12139  82.9327 268.2293 0260301  96.8137 266.2785 15.12053189318235
SL-3 R/B                
1 12465U 81046B   26092.27082173  .00017361  00000+0  39604-3 0  9998
2 12465  81.2283 261.4098 0018118 298.4222  61.5194 15.42590920442061
SL-3 R/B                
1 12904U 81103B   26092.31593576  .00007226  00000+0  31783-3 0  9998
2 12904  81.1615 185.7167 0013024 202.6924 157.3734 15.21664330976823
SL-3 R/B                
1 13068U 82013B   26092.24889114  .00005740  00000+0  24672-3 0  9997
2 13068  81.1726 133.1538 0023570 100.5279 259.8610 15.22230571407932
SL-3 R/B                
1 13154U 82039B   26092.31128441  .00003755  00000+0  22628-3 0  9991
2 13154  81.1563 188.7238 0028314 245.8826 113.9438 15.10218324385204
SL-3 R/B                
1 13403U 82079B   26092.28865912  .00007550  00000+0  29772-3 0  9993
2 13403  81.1479 165.2114 0025505  87.3739 273.0414 15.25115408381293
SL-14 R/B               
1 13553U 82092B   26092.32572673  .00000614  00000+0  66114-4 0  9994
2 13553  82.5652 119.2870 0019309 219.2861 151.2571 14.86688435332447
SL-3 R/B                
1 13819U 83010B   26092.11475480  .00015935  00000+0  31182-3 0  9993
2 13819  81.1042 333.5138 0015597 330.0910  29.9442 15.47149431361569
SL-3 R/B                
1 14208U 83075B   26092.29383020  .00016065  00000+0  41443-3 0  9990
2 14208  97.6132  97.7750 0022675 141.3958 218.8914 15.38990133333782
COSMOS 1536             
1 14699U 84013A   26092.22606987  .00009300  00000+0  37987-3 0  9992
2 14699  82.5416  84.4413 0013847 191.8424 168.2490 15.24158723276208
SL-14 R/B               
1 14820U 84027B   26091.65502948  .00000665  00000+0  73248-4 0  9997
2 14820  82.5423 223.4729 0016525 256.2708 103.6669 14.86001483251047
SL-8 R/B                
1 15483U 85006B   26092.30711407  .00000418  00000+0  14732-3 0  9994
2 15483  74.0459 217.6882 0017514 128.4993 252.4569 14.37800804157427
SL-12 R/B(2)            
1 15772U 85042D   26092.27760657  .00000183  00000+0  10385-3 0  9991
2 15772  71.1097  37.8917 0032824  88.9626  62.5389 14.21989389117749
SL-14 R/B               
1 15945U 85069B   26092.23865633  .00000693  00000+0  75421-4 0  9997
2 15945  82.5305   2.7959 0020222 112.5198 247.8162 14.86459433176333
SL-16 R/B               
1 16182U 85097B   26092.27896752 -.00000180  00000+0 -66186-4 0  9993
2 16182  71.0007  90.8891 0009307 231.9194 139.2347 14.16602955 90577
